CCSDS_OMM_VERS = 2.0
CREATION_DATE  = 
ORIGINATOR     = 

OBJECT_NAME    = ALOS-2
OBJECT_ID      = 2014-029A
CENTER_NAME    = EARTH
REF_FRAME      = TEME
TIME_SYSTEM    = UTC
MEAN_ELEMENT_THEORY = SGP/SGP4

EPOCH          = 2026-03-17T20:01:39.548064
MEAN_MOTION    = 14.79537274
ECCENTRICITY   = .0001456
INCLINATION    = 97.9193
RA_OF_ASC_NODE = 175.3134
ARG_OF_PERICENTER = 92.6159
MEAN_ANOMALY   = 267.5220

EPHEMERIS_TYPE = 0
CLASSIFICATION_TYPE = U
NORAD_CAT_ID   = 39766
ELEMENT_SET_NO = 999
REV_AT_EPOCH   = 63807
BSTAR          = .23829E-3
MEAN_MOTION_DOT = .1731E-4
MEAN_MOTION_DDOT = 0

CCSDS_OMM_VERS = 2.0
CREATION_DATE  = 
ORIGINATOR     = 

OBJECT_NAME    = YAOGAN-29
OBJECT_ID      = 2015-069A
CENTER_NAME    = EARTH
REF_FRAME      = TEME
TIME_SYSTEM    = UTC
MEAN_ELEMENT_THEORY = SGP/SGP4

EPOCH          = 2026-03-17T21:23:11.821920
MEAN_MOTION    = 14.83003658
ECCENTRICITY   = .000134
INCLINATION    = 98.0135
RA_OF_ASC_NODE = 105.3422
ARG_OF_PERICENTER = 22.5300
MEAN_ANOMALY   = 337.5972

EPHEMERIS_TYPE = 0
CLASSIFICATION_TYPE = U
NORAD_CAT_ID   = 41038
ELEMENT_SET_NO = 999
REV_AT_EPOCH   = 55709
BSTAR          = .37383E-4
MEAN_MOTION_DOT = .25E-5
MEAN_MOTION_DDOT = 0

CCSDS_OMM_VERS = 2.0
CREATION_DATE  = 
ORIGINATOR     = 

OBJECT_NAME    = ASTRO-H (HITOMI)
OBJECT_ID      = 2016-012A
CENTER_NAME    = EARTH
REF_FRAME      = TEME
TIME_SYSTEM    = UTC
MEAN_ELEMENT_THEORY = SGP/SGP4

EPOCH          = 2026-03-17T19:56:11.298048
MEAN_MOTION    = 15.10059012
ECCENTRICITY   = .0009639
INCLINATION    = 30.9997
RA_OF_ASC_NODE = 304.0110
ARG_OF_PERICENTER = 52.6877
MEAN_ANOMALY   = 307.4638

EPHEMERIS_TYPE = 0
CLASSIFICATION_TYPE = U
NORAD_CAT_ID   = 41337
ELEMENT_SET_NO = 999
REV_AT_EPOCH   = 55346
BSTAR          = .14225E-3
MEAN_MOTION_DOT = .2469E-4
MEAN_MOTION_DDOT = 0

CCSDS_OMM_VERS = 2.0
CREATION_DATE  = 
ORIGINATOR     = 

OBJECT_NAME    = HXMT (HUIYAN)
OBJECT_ID      = 2017-034A
CENTER_NAME    = EARTH
REF_FRAME      = TEME
TIME_SYSTEM    = UTC
MEAN_ELEMENT_THEORY = SGP/SGP4

EPOCH          = 2026-03-17T20:57:49.999104
MEAN_MOTION    = 15.17578693
ECCENTRICITY   = .0033147
INCLINATION    = 43.0156
RA_OF_ASC_NODE = 331.1723
ARG_OF_PERICENTER = 285.7188
MEAN_ANOMALY   = 74.0005

EPHEMERIS_TYPE = 0
CLASSIFICATION_TYPE = U
NORAD_CAT_ID   = 42758
ELEMENT_SET_NO = 999
REV_AT_EPOCH   = 48378
BSTAR          = .21917E-3
MEAN_MOTION_DOT = .4304E-4
MEAN_MOTION_DDOT = 0

CCSDS_OMM_VERS = 2.0
CREATION_DATE  = 
ORIGINATOR     = 

OBJECT_NAME    = SAOCOM 1A
OBJECT_ID      = 2018-076A
CENTER_NAME    = EARTH
REF_FRAME      = TEME
TIME_SYSTEM    = UTC
MEAN_ELEMENT_THEORY = SGP/SGP4

EPOCH          = 2026-03-17T19:03:44.738784
MEAN_MOTION    = 14.82148752
ECCENTRICITY   = .0001435
INCLINATION    = 97.8894
RA_OF_ASC_NODE = 264.8524
ARG_OF_PERICENTER = 84.9938
MEAN_ANOMALY   = 275.1439

EPHEMERIS_TYPE = 0
CLASSIFICATION_TYPE = U
NORAD_CAT_ID   = 43641
ELEMENT_SET_NO = 999
REV_AT_EPOCH   = 40256
BSTAR          = .45034E-4
MEAN_MOTION_DOT = .306E-5
MEAN_MOTION_DDOT = 0

CCSDS_OMM_VERS = 2.0
CREATION_DATE  = 
ORIGINATOR     = 

OBJECT_NAME    = H-2A R/B
OBJECT_ID      = 2018-084L
CENTER_NAME    = EARTH
REF_FRAME      = TEME
TIME_SYSTEM    = UTC
MEAN_ELEMENT_THEORY = SGP/SGP4

EPOCH          = 2026-03-17T20:19:14.697696
MEAN_MOTION    = 15.41695729
ECCENTRICITY   = .0024767
INCLINATION    = 98.8722
RA_OF_ASC_NODE = 295.9805
ARG_OF_PERICENTER = 357.3531
MEAN_ANOMALY   = 2.7576

EPHEMERIS_TYPE = 0
CLASSIFICATION_TYPE = U
NORAD_CAT_ID   = 43682
ELEMENT_SET_NO = 999
REV_AT_EPOCH   = 40703
BSTAR          = .3379E-3
MEAN_MOTION_DOT = .14309E-3
MEAN_MOTION_DDOT = 0

CCSDS_OMM_VERS = 2.0
CREATION_DATE  = 
ORIGINATOR     = 

OBJECT_NAME    = SAOCOM 1B
OBJECT_ID      = 2020-059A
CENTER_NAME    = EARTH
REF_FRAME      = TEME
TIME_SYSTEM    = UTC
MEAN_ELEMENT_THEORY = SGP/SGP4

EPOCH          = 2026-03-14T01:04:39.385920
MEAN_MOTION    = 14.82151938
ECCENTRICITY   = .00013837
INCLINATION    = 97.8899
RA_OF_ASC_NODE = 260.2532
ARG_OF_PERICENTER = 84.3427
MEAN_ANOMALY   = 275.7944

EPHEMERIS_TYPE = 0
CLASSIFICATION_TYPE = U
NORAD_CAT_ID   = 46265
ELEMENT_SET_NO = 999
REV_AT_EPOCH   = 29939
BSTAR          = .26755151E-4
MEAN_MOTION_DOT = .161E-5
MEAN_MOTION_DDOT = 0

CCSDS_OMM_VERS = 2.0
CREATION_DATE  = 
ORIGINATOR     = 

OBJECT_NAME    = CSS (TIANHE)
OBJECT_ID      = 2021-035A
CENTER_NAME    = EARTH
REF_FRAME      = TEME
TIME_SYSTEM    = UTC
MEAN_ELEMENT_THEORY = SGP/SGP4

EPOCH          = 2026-03-17T14:03:02.689920
MEAN_MOTION    = 15.61097750
ECCENTRICITY   = .0006145
INCLINATION    = 41.4671
RA_OF_ASC_NODE = 160.1044
ARG_OF_PERICENTER = 321.5629
MEAN_ANOMALY   = 38.4771

EPHEMERIS_TYPE = 0
CLASSIFICATION_TYPE = U
NORAD_CAT_ID   = 48274
ELEMENT_SET_NO = 999
REV_AT_EPOCH   = 27884
BSTAR          = .24801E-3
MEAN_MOTION_DOT = .2125E-3
MEAN_MOTION_DDOT = 0

CCSDS_OMM_VERS = 2.0
CREATION_DATE  = 
ORIGINATOR     = 

OBJECT_NAME    = COSMOS 2550
OBJECT_ID      = 2021-056A
CENTER_NAME    = EARTH
REF_FRAME      = TEME
TIME_SYSTEM    = UTC
MEAN_ELEMENT_THEORY = SGP/SGP4

EPOCH          = 2026-03-17T03:31:02.671680
MEAN_MOTION    = 15.33878800
ECCENTRICITY   = .00082971
INCLINATION    = 67.1448
RA_OF_ASC_NODE = 18.3252
ARG_OF_PERICENTER = 268.8880
MEAN_ANOMALY   = 91.1323

EPHEMERIS_TYPE = 0
CLASSIFICATION_TYPE = U
NORAD_CAT_ID   = 48865
ELEMENT_SET_NO = 999
REV_AT_EPOCH   = 26460
BSTAR          = -.379957E-6
MEAN_MOTION_DOT = -.204E-5
MEAN_MOTION_DDOT = 0

CCSDS_OMM_VERS = 2.0
CREATION_DATE  = 
ORIGINATOR     = 

OBJECT_NAME    = CZ-2C R/B
OBJECT_ID      = 2022-058K
CENTER_NAME    = EARTH
REF_FRAME      = TEME
TIME_SYSTEM    = UTC
MEAN_ELEMENT_THEORY = SGP/SGP4

EPOCH          = 2026-03-16T21:42:38.464704
MEAN_MOTION    = 15.54771257
ECCENTRICITY   = .00419661
INCLINATION    = 50.1879
RA_OF_ASC_NODE = 281.1612
ARG_OF_PERICENTER = 231.5981
MEAN_ANOMALY   = 128.1218

EPHEMERIS_TYPE = 0
CLASSIFICATION_TYPE = U
NORAD_CAT_ID   = 52794
ELEMENT_SET_NO = 999
REV_AT_EPOCH   = 21125
BSTAR          = .44728262E-3
MEAN_MOTION_DOT = .31172E-3
MEAN_MOTION_DDOT = 0

CCSDS_OMM_VERS = 2.0
CREATION_DATE  = 
ORIGINATOR     = 

OBJECT_NAME    = CZ-2C R/B
OBJECT_ID      = 2022-132E
CENTER_NAME    = EARTH
REF_FRAME      = TEME
TIME_SYSTEM    = UTC
MEAN_ELEMENT_THEORY = SGP/SGP4

EPOCH          = 2026-03-17T18:18:17.021664
MEAN_MOTION    = 15.62599279
ECCENTRICITY   = .0019825
INCLINATION    = 97.2954
RA_OF_ASC_NODE = 80.3290
ARG_OF_PERICENTER = 65.9222
MEAN_ANOMALY   = 294.4107

EPHEMERIS_TYPE = 0
CLASSIFICATION_TYPE = U
NORAD_CAT_ID   = 54039
ELEMENT_SET_NO = 999
REV_AT_EPOCH   = 19163
BSTAR          = .39166E-3
MEAN_MOTION_DOT = .35274E-3
MEAN_MOTION_DDOT = 0

CCSDS_OMM_VERS = 2.0
CREATION_DATE  = 
ORIGINATOR     = 

OBJECT_NAME    = GSLV R/B
OBJECT_ID      = 2022-138AN
CENTER_NAME    = EARTH
REF_FRAME      = TEME
TIME_SYSTEM    = UTC
MEAN_ELEMENT_THEORY = SGP/SGP4

EPOCH          = 2026-03-17T05:00:14.557248
MEAN_MOTION    = 14.96829228
ECCENTRICITY   = .0023762
INCLINATION    = 87.3883
RA_OF_ASC_NODE = 163.8462
ARG_OF_PERICENTER = 121.7083
MEAN_ANOMALY   = 238.6470

EPHEMERIS_TYPE = 0
CLASSIFICATION_TYPE = U
NORAD_CAT_ID   = 54149
ELEMENT_SET_NO = 999
REV_AT_EPOCH   = 18505
BSTAR          = .16396691E-3
MEAN_MOTION_DOT = .1917E-4
MEAN_MOTION_DDOT = 0

